[{"OBJECT_NAME":"LKW-3","OBJECT_ID":"2018-006A","EPOCH":"2026-03-09T23:35:48.740928","MEAN_MOTION":15.33087407,"ECCENTRICITY":0.00022503,"INCLINATION":97.6481,"RA_OF_ASC_NODE":225.9034,"ARG_OF_PERICENTER":308.148,"MEAN_ANOMALY":51.9559,"EPHEMERIS_TYPE":0,"CLASSIFICATION_TYPE":"U","NORAD_CAT_ID":43146,"ELEMENT_SET_NO":999,"REV_AT_EPOCH":45350,"BSTAR":0.00042518021,"MEAN_MOTION_DOT":0.00013518,"MEAN_MOTION_DDOT":0},{"OBJECT_NAME":"STARLINK-35092","OBJECT_ID":"2025-189V","EPOCH":"2026-03-09T14:01:14.890368","MEAN_MOTION":15.30215946,"ECCENTRICITY":9.49e-5,"INCLINATION":53.1604,"RA_OF_ASC_NODE":207.0206,"ARG_OF_PERICENTER":87.1219,"MEAN_ANOMALY":272.989,"EPHEMERIS_TYPE":0,"CLASSIFICATION_TYPE":"U","NORAD_CAT_ID":65342,"ELEMENT_SET_NO":999,"REV_AT_EPOCH":3100,"BSTAR":0.0012608,"MEAN_MOTION_DOT":0.00037187,"MEAN_MOTION_DDOT":0}]
